[{"OBJECT_ID":"2014-090C","OBJECT_NAME":"FENGYUN 2G AKM","NORAD_CAT_ID":"40369","OBJECT_TYPE":"ROCKET BODY","PERIOD":"1446.060","INCLINATION":"1.1051","APOGEE":"36172.100","PERIGEE":"35790.678","ECCENTRICITY":"0.0045022","MEAN_MOTION":"0.99580923","TLE_LINE1":"1 40369U 14090C   16237.65774933  .00000089  00000-0  00000+0 0  9995","TLE_LINE2":"2 40369   1.1051 270.9330 0045022 264.7656  94.1940  0.99580923  6003","LAUNCH_DATE":"2014-12-31","LAUNCH_SITE":"Xichang Space Center, China","OWNER":"PEOPLES REPUBLIC OF CHINA","ORBIT_TYPE":"Geosynchronous","OPERATIONAL_STATUS":"N/A, derelict rocket body","satInfo":{"lng":96.77455651894661,"lat":0.916487487591221,"elevation":-7.601781316192518,"azimuth":218.22544348105336,"range":42916.47296939158,"height":36166.5986929748,"velocity":3.054208522704982},"x":359,"y":43},{"OBJECT_ID":"2015-005A","OBJECT_NAME":"INMARSAT 5-F2","NORAD_CAT_ID":"40384","OBJECT_TYPE":"PAYLOAD","PERIOD":"1436.121","INCLINATION":"0.0187","APOGEE":"35789.702","PERIGEE":"35784.456","ECCENTRICITY":"6.22e-05","MEAN_MOTION":"1.00270064","TLE_LINE1":"1 40384U 15005A   16239.21276200 -.00000314  00000-0  00000+0 0  9999","TLE_LINE2":"2 40384   0.0187 134.6307 0000622 156.5994  65.2438  1.00270064  5755","LAUNCH_DATE":"2015-02-01","LAUNCH_SITE":"TYURATAM MISSILE AND SPACE COMPLEX","OWNER":"INTERNATIONAL MARITIME SATELLITE ORGANIZATION (INMARSAT)","ORBIT_TYPE":"Geosynchronous","OPERATIONAL_STATUS":"Operational","satInfo":{"lng":-60.50114597176054,"lat":1.6452084682563002,"elevation":-6.961792386233825,"azimuth":15.501145971760547,"range":42468.86495598103,"height":35794.98080216568,"velocity":3.074416632293506},"x":-312,"y":-176},{"OBJECT_ID":"2015-010A","OBJECT_NAME":"ABS 3A","NORAD_CAT_ID":"40424","OBJECT_TYPE":"PAYLOAD","PERIOD":"1436.087","INCLINATION":"0.0151","APOGEE":"35796.211","PERIGEE":"35776.630","ECCENTRICITY":"0.0002322","MEAN_MOTION":"1.00272414","TLE_LINE1":"1 40424U 15010A   16238.08118883 -.00000052  00000-0  00000+0 0  9995","TLE_LINE2":"2 40424   0.0151 109.2356 0002322 323.3193 287.4653  1.00272414  5485","LAUNCH_DATE":"2015-03-02","LAUNCH_SITE":"AIR FORCE EASTERN TEST RANGE","OWNER":"PEOPLES REPUBLIC OF CHINA","ORBIT_TYPE":"Geosynchronous","OPERATIONAL_STATUS":"Operational","satInfo":{"lng":27.331478130946866,"lat":-1.5970749625096459,"elevation":-10.125286550772657,"azimuth":287.6685218690531,"range":42843.012785599865,"height":35813.9987898544,"velocity":3.073443510407846},"x":164,"y":-318},{"OBJECT_ID":"2015-010B","OBJECT_NAME":"EUTE 115 WEST B(SATMEX 7","NORAD_CAT_ID":"40425","OBJECT_TYPE":"PAYLOAD","PERIOD":"1436.116","INCLINATION":"0.0028","APOGEE":"35787.266","PERIGEE":"35786.684","ECCENTRICITY":"6.9e-06","MEAN_MOTION":"1.00270436","TLE_LINE1":"1 40425U 15010B   16238.39110867 -.00000051  00000-0  00000+0 0  9993","TLE_LINE2":"2 40425   0.0028  95.0956 0000069  84.9416 179.9629  1.00270436  5515","LAUNCH_DATE":"2015-03-02","LAUNCH_SITE":"AIR FORCE EASTERN TEST RANGE","OWNER":"EUROPEAN TELECOMMUNICATIONS SATELLITE ORGANIZATION (EUTELSAT)","ORBIT_TYPE":"Geosynchronous","OPERATIONAL_STATUS":"Operational","satInfo":{"lng":-106.25763216998625,"lat":2.244120768217928,"elevation":-6.3768917167818095,"azimuth":61.2576321699862,"range":42388.288559249464,"height":35780.186765860606,"velocity":3.0749523375869185},"x":-343,"y":100},{"OBJECT_ID":"2015-012A","OBJECT_NAME":"EXPRESS AM-7","NORAD_CAT_ID":"40505","OBJECT_TYPE":"PAYLOAD","PERIOD":"1436.091","INCLINATION":"0.0083","APOGEE":"35797.834","PERIGEE":"35775.157","ECCENTRICITY":"0.0002689","MEAN_MOTION":"1.00272145","TLE_LINE1":"1 40505U 15012A   16239.18626075  .00000122  00000-0  00000+0 0  9993","TLE_LINE2":"2 40505   0.0083 143.7295 0002689  18.0714 280.0847  1.00272145  5448","LAUNCH_DATE":"2015-03-18","LAUNCH_SITE":"TYURATAM MISSILE AND SPACE COMPLEX","OWNER":"COMMONWEALTH OF INDEPENDENT STATES","ORBIT_TYPE":"Geosynchronous","OPERATIONAL_STATUS":"Operational","satInfo":{"lng":98.67258985557456,"lat":-1.478982459501218,"elevation":-10.016866366360805,"azimuth":216.32741014442541,"range":42797.79709226593,"height":35781.306624437,"velocity":3.0745195016746143},"x":354,"y":54},{"OBJECT_ID":"2015-022A","OBJECT_NAME":"THOR 7","NORAD_CAT_ID":"40613","OBJECT_TYPE":"PAYLOAD","PERIOD":"1436.078","INCLINATION":"0.0344","APOGEE":"35796.727","PERIGEE":"35775.754","ECCENTRICITY":"0.0002487","MEAN_MOTION":"1.00273055","TLE_LINE1":"1 40613U 15022A   16238.07472141 -.00000034 +00000-0 +00000-0 0  9998","TLE_LINE2":"2 40613 000.0344 239.4609 0002487 281.2404 199.3031 01.00273055004904","LAUNCH_DATE":"2015-04-26","LAUNCH_SITE":"FRENCH GUIANA","OWNER":"NORWAY","ORBIT_TYPE":"Geosynchronous","OPERATIONAL_STATUS":"Operational","satInfo":{"lng":17.05128343034494,"lat":1.8894694821986637,"elevation":-6.71975799405805,"azimuth":297.94871656965506,"range":42453.59399171042,"height":35806.72900094411,"velocity":3.073757827413842},"x":105,"y":-342},{"OBJECT_ID":"2015-023A","OBJECT_NAME":"TURKMENALEM 52E/MONACOSA","NORAD_CAT_ID":"40617","OBJECT_TYPE":"PAYLOAD","PERIOD":"1436.113","INCLINATION":"0.0252","APOGEE":"35795.125","PERIGEE":"35778.723","ECCENTRICITY":"0.0001945","MEAN_MOTION":"1.00270617","TLE_LINE1":"1 40617U 15023A   16238.92586860 +.00000076 +00000-0 +00000-0 0  9996","TLE_LINE2":"2 40617 000.0252 107.0945 0001945 048.6929 204.2218 01.00270617004920","LAUNCH_DATE":"2015-04-27","LAUNCH_SITE":"AIR FORCE EASTERN TEST RANGE","OWNER":"TURKMENISTAN/MONACO","ORBIT_TYPE":"Geosynchronous","OPERATIONAL_STATUS":"Operational","satInfo":{"lng":97.2989529852829,"lat":-2.0351322191153653,"elevation":-10.556087430484585,"azimuth":217.7010470147171,"range":42866.63348135816,"height":35789.59429627753,"velocity":3.074329130451101},"x":355,"y":45},{"OBJECT_ID":"2015-026A","OBJECT_NAME":"DIRECTV 15","NORAD_CAT_ID":"40663","OBJECT_TYPE":"PAYLOAD","PERIOD":"1436.187","INCLINATION":"0.022","APOGEE":"35791.336","PERIGEE":"35785.407","ECCENTRICITY":"7.03e-05","MEAN_MOTION":"1.00265454","TLE_LINE1":"1 40663U 15026A   16238.35752070 -.00000128 +00000-0 +00000-0 0  9994","TLE_LINE2":"2 40663 000.0220 100.6367 0000703 195.0819 064.2685 01.00265454004609","LAUNCH_DATE":"2015-05-27","LAUNCH_SITE":"FRENCH GUIANA","OWNER":"UNITED STATES OF AMERICA","ORBIT_TYPE":"Geosynchronous","OPERATIONAL_STATUS":"Operational","satInfo":{"lng":-108.29690353564446,"lat":2.3095006145672694,"elevation":-6.310909547512834,"azimuth":63.29690353564441,"range":42389.62927779198,"height":35788.8294102131,"velocity":3.0745574793669714},"x":-340,"y":112},{"OBJECT_ID":"2015-026B","OBJECT_NAME":"SKY MEXICO-1","NORAD_CAT_ID":"40664","OBJECT_TYPE":"PAYLOAD","PERIOD":"1436.096","INCLINATION":"0.053","APOGEE":"35794.749","PERIGEE":"35778.431","ECCENTRICITY":"0.0001935","MEAN_MOTION":"1.00271809","TLE_LINE1":"1 40664U 15026B   16238.29114754 -.00000261  00000-0  00000+0 0  9996","TLE_LINE2":"2 40664   0.0530 280.9714 0001935 250.1194 188.9072  1.00271809  4615","LAUNCH_DATE":"2015-05-27","LAUNCH_SITE":"FRENCH GUIANA","OWNER":"MEXICO","ORBIT_TYPE":"Geosynchronous","OPERATIONAL_STATUS":"Operational","satInfo":{"lng":-96.49092531780802,"lat":-2.1264266367823415,"elevation":-10.644572990882248,"azimuth":51.49092531780799,"range":42877.723341636636,"height":35790.75293796965,"velocity":3.0748297394506823},"x":-356,"y":40},{"OBJECT_ID":"2015-034B","OBJECT_NAME":"STARONE C4","NORAD_CAT_ID":"40733","OBJECT_TYPE":"PAYLOAD","PERIOD":"1436.116","INCLINATION":"0.0426","APOGEE":"35794.672","PERIGEE":"35779.299","ECCENTRICITY":"0.0001823","MEAN_MOTION":"1.00270397","TLE_LINE1":"1 40733U 15034B   16238.26682467 -.00000291  00000-0  00000+0 0  9993","TLE_LINE2":"2 40733   0.0426 306.9180 0001823 182.4859 230.6067  1.00270397  4118","LAUNCH_DATE":"2015-07-15","LAUNCH_SITE":"FRENCH GUIANA","OWNER":"BRAZIL","ORBIT_TYPE":"Geosynchronous","OPERATIONAL_STATUS":"Operational","satInfo":{"lng":-86.90376291248613,"lat":-1.897434095940296,"elevation":-10.420854445757067,"azimuth":41.90376291248613,"range":42858.554733622404,"height":35796.59692245449,"velocity":3.0744789796474183},"x":-357,"y":-19},{"OBJECT_ID":"2012-035E","OBJECT_NAME":"MSG 3 DEB (COOLER COVER)","NORAD_CAT_ID":"40871","OBJECT_TYPE":"DEBRIS","PERIOD":"1418.465","INCLINATION":"1.6273","APOGEE":"35579.751","PERIGEE":"35301.805","ECCENTRICITY":"0.0033232","MEAN_MOTION":"1.01518138","TLE_LINE1":"1 40871U 12035E   16239.41377436 -.00000184  00000-0  00000+0 0  9990","TLE_LINE2":"2 40871   1.6273 100.7768 0033232 179.0080  85.1063  1.01518138 14835","LAUNCH_DATE":"2012-07-05","LAUNCH_SITE":"FRENCH GUIANA","OWNER":"EUROPEAN ORGANIZATION FOR THE EXPLOITATION OF METEOROLOGICAL SATELLITES","ORBIT_TYPE":"Unclassified","OPERATIONAL_STATUS":"N/A, space debris","satInfo":{"lng":-12.709684472442081,"lat":-0.9545490558341365,"elevation":-9.600401592995885,"azimuth":327.709684472442,"range":42278.145982201706,"height":35313.67783006778,"velocity":3.09681573603819},"x":-78,"y":-344},{"OBJECT_ID":"2015-039A","OBJECT_NAME":"INTELSAT 34","NORAD_CAT_ID":"40874","OBJECT_TYPE":"PAYLOAD","PERIOD":"1436.127","INCLINATION":"0.0212","APOGEE":"35790.865","PERIGEE":"35783.511","ECCENTRICITY":"8.72e-05","MEAN_MOTION":"1.00269674","TLE_LINE1":"1 40874U 15039A   16238.22663269 -.00000311  00000-0  00000+0 0  9992","TLE_LINE2":"2 40874   0.0212 124.9834 0000872 282.5846 312.4393  1.00269674  3758","LAUNCH_DATE":"2015-08-20","LAUNCH_SITE":"FRENCH GUIANA","OWNER":"INTERNATIONAL TELECOMMUNICATIONS SATELLITE ORGANIZATION (INTELSAT)","ORBIT_TYPE":"Geosynchronous","OPERATIONAL_STATUS":"Operational","satInfo":{"lng":-61.6270455312436,"lat":1.7329869653406496,"elevation":-6.8747458916816075,"azimuth":16.62704553124355,"range":42463.79884107448,"height":35799.62750486297,"velocity":3.0740983417981336},"x":-315,"y":-170}]